NOAA 16 DEB             
1 41348U 00055HR  25006.00952763  .00035137  00000+0  99708-2 0  9998
2 41348  98.8013 105.4275 0028917 220.5401 139.3635 14.45045333462808
NOAA 16 DEB             
1 41349U 00055HS  25005.24664587  .00020372  00000+0  60338-2 0  9990
2 41349  98.9762 178.0823 0034666 244.6520 115.1077 14.43021428466996
NOAA 16 DEB             
1 41350U 00055HT  25005.30873883  .00020832  00000+0  65292-2 0  9995
2 41350  99.0517 187.5300 0022751 271.0735  88.7845 14.40452189462631
NOAA 16 DEB             
1 41351U 00055HU  25005.36482309  .00009030  00000+0  41503-2 0  9997
2 41351  98.6552  43.7149 0011343 243.1984 116.8033 14.21354209463277
NOAA 16 DEB             
1 41352U 00055HV  25005.20140156  .00022848  00000+0  65593-2 0  9999
2 41352  98.9515 174.3368 0037969 180.3944 179.7221 14.44432450466601
NOAA 16 DEB             
1 41353U 00055HW  25006.13705143  .00007836  00000+0  36137-2 0  9998
2 41353  98.7249  73.3587 0026515 158.8427 201.3853 14.21070078460983
NOAA 16 DEB             
1 41354U 00055HX  25006.10880991  .00006905  00000+0  32887-2 0  9995
2 41354  98.6941  63.3204 0023399 164.0236 196.1683 14.19462312460874
NOAA 16 DEB             
1 41355U 00055HY  25006.79127492  .00063151  00000+0  13471-1 0  9994
2 41355  98.8421 129.0455 0008856 228.5262 131.5175 14.58509296464604
NOAA 16 DEB             
1 41356U 00055HZ  25006.09981576  .00009013  00000+0  43458-2 0  9995
2 41356  98.7706  61.1990 0042652 215.9640 143.8663 14.18391994462507
NOAA 16 DEB             
1 41357U 00055JA  25006.95744313  .00004916  00000+0  30983-2 0  9993
2 41357  98.8211   3.8827 0074208 101.8965 259.0535 14.03301213456035
NOAA 16 DEB             
1 41358U 00055JB  25006.11409862  .00007586  00000+0  33495-2 0  9996
2 41358  98.6614  67.2193 0016053  71.9921 288.3006 14.23469984461074
NOAA 16 DEB             
1 41359U 00055JC  25006.89121837  .00019422  00000+0  56283-2 0  9997
2 41359  98.9293 164.3666 0028194 220.7797 139.1282 14.44211555463689
NOAA 16 DEB             
1 41360U 00055JD  25006.25221473  .00010630  00000+0  44091-2 0  9992
2 41360  98.8717 116.7734 0024797 108.3634 252.0245 14.26509494461914
NOAA 16 DEB             
1 41361U 00055JE  25004.83172348  .00009518  00000+0  47684-2 0  9995
2 41361  98.7672  49.3823 0031566 329.3482  30.5847 14.16562880457595
NOAA 16 DEB             
1 41362U 00055JF  25005.29608844  .00025406  00000+0  68122-2 0  9996
2 41362  98.9694 187.1200 0036254 171.3247 188.8578 14.47726180466086
NOAA 16 DEB             
1 41363U 00055JG  25006.89720039  .00034135  00000+0  80326-2 0  9994
2 41363  98.9047 166.3008 0019283 220.6251 139.3505 14.54099087463692
NOAA 16 DEB             
1 41364U 00055JH  25005.85483981  .00009941  00000+0  42286-2 0  9992
2 41364  98.6554  61.2758 0015368 234.6365 125.3379 14.25326865460583
NOAA 16 DEB             
1 41365U 00055JJ  25006.37161481  .00021753  00000+0  63181-2 0  9991
2 41365  98.9138 157.9191 0034661 260.2935  99.4338 14.43953010463154
NOAA 16 DEB             
1 41366U 00055JK  25005.03374240  .00022163  00000+0  91103-2 0  9994
2 41366  98.9409  99.7279 0030386 347.6741  12.3692 14.26691968458176
NOAA 16 DEB             
1 41367U 00055JL  25006.31688163  .00021032  00000+0  60199-2 0  9994
2 41367  99.0122 188.4438 0040521 289.3565  70.3246 14.44544631463676
NOAA 16 DEB             
1 41369U 00055JN  25006.52748884  .00053437  00000+0  12559-1 0  9996
2 41369  98.8065 114.5307 0018740 205.2912 154.7367 14.54001429464437
NOAA 16 DEB             
1 41370U 00055JP  25004.62193250  .00026403  00000+0  45507-2 0  9991
2 41370  98.9158 244.5609 0055197  35.7981 324.6901 14.67466510477279
NOAA 16 DEB             
1 41372U 00055JR  25005.41916246  .00022444  00000+0  52906-2 0  9991
2 41372  98.9942 256.3370 0058135 132.5909 228.0211 14.53216676468990
NOAA 16 DEB             
1 41373U 00055JS  25006.31570661  .00015083  00000+0  51156-2 0  9996
2 41373  98.8938 141.6122 0023245 274.9718  84.8813 14.36627413465178
NOAA 16 DEB             
1 41374U 00055JT  25006.37488114  .00006734  00000+0  34121-2 0  9990
2 41374  98.7441  59.3688 0035237 236.8038 122.9756 14.16022963460795
NOAA 16 DEB             
1 41375U 00055JU  25001.27552628  .00173734  00000+0  25932-1 0  9991
2 41375  98.9083 174.6744 0013998 234.7123 125.2774 14.73671511463135
NOAA 16 DEB             
1 41376U 00055JV  25006.17692372  .00010477  00000+0  42585-2 0  9995
2 41376  98.7462  97.1884 0016778  24.3724 335.8247 14.27643738464143
NOAA 16 DEB             
1 41377U 00055JW  25006.52973076  .00009597  00000+0  40314-2 0  9997
2 41377  98.8202 107.1948 0022023  96.5161 263.8527 14.25924988464380
NOAA 16 DEB             
1 41378U 00055JX  25006.00065430  .00006862  00000+0  34957-2 0  9995
2 41378  98.6592  30.1221 0043713 214.8575 144.9735 14.15548402461641
NOAA 16 DEB             
1 41379U 00055JY  25005.26529452  .00019398  00000+0  64045-2 0  9991
2 41379  98.8167 126.1294 0028030 217.8707 142.0507 14.37824503466243
NOAA 16 DEB             
1 41397U 00055KA  25002.16476412  .00107597  00000+0  32568-1 0  9997
2 41397  98.9153 152.1089 0036017 259.3594 100.3536 14.41193271458807
NOAA 16 DEB             
1 41398U 00055KB  25006.26104309  .00011637  00000+0  44284-2 0  9994
2 41398  98.8037 113.7940 0015381 329.0262  31.0012 14.30991422458671
NOAA 16 DEB             
1 41399U 00055KC  25006.33466228  .00007274  00000+0  38142-2 0  9992
2 41399  98.7691  48.0982 0041752 280.5377  79.1093 14.14034243459339
NOAA 16 DEB             
1 41400U 00055KD  25006.03051396  .00010640  00000+0  41887-2 0  9999
2 41400  98.7276  96.0437 0016308   3.3370 356.7917 14.29279472457026
NOAA 16 DEB             
1 41401U 00055KE  25004.87374604  .00009706  00000+0  46267-2 0  9998
2 41401  98.6984  42.8726 0021173 263.1475  96.7292 14.19333473460189
NOAA 16 DEB             
1 41402U 00055KF  25006.85053406  .00006025  00000+0  31223-2 0  9990
2 41402  98.7204  42.2188 0030781 314.8317  45.0355 14.14942915457822
NOAA 16 DEB             
1 41403U 00055KG  25006.85256609  .00015823  00000+0  49584-2 0  9996
2 41403  98.8999 148.1591 0023488 263.4941  96.3572 14.40521167462891
NOAA 16 DEB             
1 41404U 00055KH  25006.02841997  .00017328  00000+0  52208-2 0  9995
2 41404  99.0441 202.0687 0032160 295.8130  63.9741 14.42282689461734
NOAA 16 DEB             
1 41405U 00055KJ  25006.16362998  .00029144  00000+0  94084-2 0  9997
2 41405  98.8584 115.1540 0012398 136.7829 223.4333 14.39005329459086
NOAA 16 DEB             
1 41406U 00055KK  25005.91521854  .00020001  00000+0  56534-2 0  9999
2 41406  98.9644 180.7354 0034629 196.6157 163.3901 14.45292590462303
NOAA 16 DEB             
1 41408U 00055KM  25005.69109968  .00009791  00000+0  39562-2 0  9999
2 41408  98.7354  95.8665 0010449 351.6011   8.4993 14.28014040459778
NOAA 16 DEB             
1 41409U 00055KN  25006.15875649  .00014485  00000+0  51611-2 0  9993
2 41409  98.6652  83.8778 0027979 330.5460  29.4147 14.34100112460152
NOAA 16 DEB             
1 41410U 00055KP  25005.38560797  .00007756  00000+0  38981-2 0  9992
2 41410  98.7246  51.0926 0022836 278.4370  81.4216 14.16582759457010
NOAA 16 DEB             
1 41411U 00055KQ  25005.55644266  .00011754  00000+0  44371-2 0  9999
2 41411  98.8154 116.7519 0016486 279.8688  80.0633 14.31389403461031
NOAA 16 DEB             
1 41412U 00055KR  25005.87325395  .00010350  00000+0  47074-2 0  9998
2 41412  98.6519  31.0256 0027109 192.5124 167.5384 14.21697024457154
NOAA 16 DEB             
1 41413U 00055KS  25005.96018554  .00011924  00000+0  50899-2 0  9992
2 41413  98.7100  68.4812 0021733 244.0284 115.8657 14.25031093458951
NOAA 16 DEB             
1 41414U 00055KT  25005.83624199  .00078152  00000+0  11113-1 0  9998
2 41414  98.9565 224.3266 0027084 191.0856 168.9757 14.76207103463674
NOAA 16 DEB             
1 41415U 00055KU  25004.53067725  .00009727  00000+0  39079-2 0  9995
2 41415  98.7387  93.0247 0005348 289.9758  70.0847 14.28331985458212
NOAA 16 DEB             
1 41416U 00055KV  24364.00365418  .00015745  00000+0  58324-2 0  9997
2 41416  98.7684  98.6355 0031628 239.6028 120.2028 14.32063375457966
NOAA 16 DEB             
1 41417U 00055KW  25004.95825801  .00012014  00000+0  50231-2 0  9996
2 41417  98.7466  91.1690 0018948  82.2430 278.0900 14.26128266457824
NOAA 16 DEB             
1 41418U 00055KX  25005.49543254  .00017738  00000+0  53645-2 0  9996
2 41418  99.0422 203.8531 0032078 247.2149 112.5648 14.42093322460947
NOAA 16 DEB             
1 41419U 00055KY  25006.22077827  .00035251  00000+0  10855-1 0  9992
2 41419  98.8550 109.0411 0018395 223.1291 136.8457 14.41215571458101
NOAA 16 DEB             
1 41420U 00055KZ  25006.89741808  .00228022  00000+0  15686-1 0  9991
2 41420  98.9056 236.1016 0023652  55.5133 304.8319 15.04529674 37819
NOAA 16 DEB             
1 41421U 00055LA  25006.29053983  .00028722  00000+0  71646-2 0  9990
2 41421  98.9662 188.9112 0037931 229.7393 130.0481 14.51086501461821
NOAA 16 DEB             
1 41422U 00055LB  25005.98717555  .00009160  00000+0  41162-2 0  9993
2 41422  98.7394  81.6975 0015707 266.5623  93.3758 14.22498566459113
NOAA 16 DEB             
1 41423U 00055LC  25005.02451516  .00012262  00000+0  48031-2 0  9990
2 41423  98.6907  89.1703 0011993 287.5232  72.4639 14.29529013461834
NOAA 16 DEB             
1 41424U 00055LD  25006.63469892  .00013360  00000+0  49430-2 0  9999
2 41424  98.9274 138.6002 0026027 262.4074  97.4152 14.32261842459210
NOAA 16 DEB             
1 41425U 00055LE  25005.35489874  .00021270  00000+0  55659-2 0  9999
2 41425  98.9945 213.6439 0041049 181.8058 178.2991 14.48827073464789
NOAA 16 DEB             
1 41426U 00055LF  25006.81329252  .00046574  00000+0  12167-1 0  9995
2 41426  98.9138 136.5567 0017987 240.0256 119.9150 14.49067069460104
NOAA 16 DEB             
1 41427U 00055LG  25004.20678539  .00022277  00000+0  86127-2 0  9994
2 41427  98.9275 102.8925 0031154 263.0566  96.7071 14.29812379455706
